{"type": "FeatureCollection", "features": [ {"type": "Feature", "properties": {"norad_id": 65077, "name": "CREW DRAGON 11", "group": "stations", "lat": 48.273979776739644, "lon": -103.15703924753782, "alt_km": 413.5968726427491, "timestamp": "2025-12-02T07:10:07.889719+00:00", "meta": {"OBJECT_NAME": "CREW DRAGON 11", "OBJECT_ID": "2025-166A", "EPOCH": "2025-12-01T13:49:44.445504", "MEAN_MOTION": 15.49226524, "ECCENTRICITY": 0.00036473, "INCLINATION": 51.6309, "RA_OF_ASC_NODE": 197.7449, "ARG_OF_PERICENTER": 190.9481, "MEAN_ANOMALY": 169.1428, "EPHEMERIS_TYPE": 0, "CLASSIFICATION_TYPE": "U", "NORAD_CAT_ID": 65077, "ELEMENT_SET_NO": 999, "REV_AT_EPOCH": 214, "BSTAR": 0.00016365535, "MEAN_MOTION_DOT": 8.648e-05, "MEAN_MOTION_DDOT": 0}, "tle": {"line1": "1 65077U 25166A   25335.57620886  .00008648  00000+0  16366-3 0  9995", "line2": "2 65077  51.6309 197.7449 0003647 190.9481 169.1428 15.49226524  2142"}}, "geometry": {"type": "Point", "coordinates": [-103.15703924753782, 48.273979776739644]}}, {"type": "Feature", "properties": {"norad_id": 65304, "name": "DRAGON CRS-33", "group": "stations", "lat": 48.27398000941148, "lon": -103.15703834155377, "alt_km": 413.5968725856492, "timestamp": "2025-12-02T07:10:07.889729+00:00", "meta": {"OBJECT_NAME": "DRAGON CRS-33", "OBJECT_ID": "2025-186A", "EPOCH": "2025-12-01T13:49:44.445504", "MEAN_MOTION": 15.49226524, "ECCENTRICITY": 0.00036473, "INCLINATION": 51.6309, "RA_OF_ASC_NODE": 197.7449, "ARG_OF_PERICENTER": 190.9481, "MEAN_ANOMALY": 169.1428, "EPHEMERIS_TYPE": 0, "CLASSIFICATION_TYPE": "U", "NORAD_CAT_ID": 65304, "ELEMENT_SET_NO": 999, "REV_AT_EPOCH": 11, "BSTAR": 0.00016365535, "MEAN_MOTION_DOT": 8.648e-05, "MEAN_MOTION_DDOT": 0}, "tle": {"line1": "1 65304U 25186A   25335.57620886  .00008648  00000+0  16366-3 0  9990", "line2": "2 65304  51.6309 197.7449 0003647 190.9481 169.1428 15.49226524   110"}}, "geometry": {"type": "Point", "coordinates": [-103.15703834155377, 48.27398000941148]}}, {"type": "Feature", "properties": {"norad_id": 65586, "name": "PROGRESS-MS 32", "group": "stations", "lat": 48.2739803584179, "lon": -103.15703698258282, "alt_km": 413.5968724999957, "timestamp": "2025-12-02T07:10:07.889744+00:00", "meta": {"OBJECT_NAME": "PROGRESS-MS 32", "OBJECT_ID": "2025-204A", "EPOCH": "2025-12-01T13:49:44.445504", "MEAN_MOTION": 15.49226524, "ECCENTRICITY": 0.00036473, "INCLINATION": 51.6309, "RA_OF_ASC_NODE": 197.7449, "ARG_OF_PERICENTER": 190.9481, "MEAN_ANOMALY": 169.1428, "EPHEMERIS_TYPE": 0, "CLASSIFICATION_TYPE": "U", "NORAD_CAT_ID": 65586, "ELEMENT_SET_NO": 999, "REV_AT_EPOCH": 27, "BSTAR": 0.00016365535, "MEAN_MOTION_DOT": 8.648e-05, "MEAN_MOTION_DDOT": 0}, "tle": {"line1": "1 65586U 25204A   25335.57620886  .00008648  00000+0  16366-3 0  9993", "line2": "2 65586  51.6309 197.7449 0003647 190.9481 169.1428 15.49226524   279"}}, "geometry": {"type": "Point", "coordinates": [-103.15703698258282, 48.2739803584179]}}, {"type": "Feature", "properties": {"norad_id": 65616, "name": "CYGNUS NG-23", "group": "stations", "lat": 48.27398059109003, "lon": -103.15703607659755, "alt_km": 413.5968724428967, "timestamp": "2025-12-02T07:10:07.889754+00:00", "meta": {"OBJECT_NAME": "CYGNUS NG-23", "OBJECT_ID": "2025-208A", "EPOCH": "2025-12-01T13:49:44.445504", "MEAN_MOTION": 15.49226524, "ECCENTRICITY": 0.00036473, "INCLINATION": 51.6309, "RA_OF_ASC_NODE": 197.7449, "ARG_OF_PERICENTER": 190.9481, "MEAN_ANOMALY": 169.1428, "EPHEMERIS_TYPE": 0, "CLASSIFICATION_TYPE": "U", "NORAD_CAT_ID": 65616, "ELEMENT_SET_NO": 999, "REV_AT_EPOCH": 22, "BSTAR": 0.00016365535, "MEAN_MOTION_DOT": 8.648e-05, "MEAN_MOTION_DDOT": 0}, "tle": {"line1": "1 65616U 25208A   25335.57620886  .00008648  00000+0  16366-3 0  9991", "line2": "2 65616  51.6309 197.7449 0003647 190.9481 169.1428 15.49226524   228"}}, "geometry": {"type": "Point", "coordinates": [-103.15703607659755, 48.27398059109003]}}, {"type": "Feature", "properties": {"norad_id": 65729, "name": "DRAGONFLY", "group": "stations", "lat": 0.9022850308924771, "lon": -170.22138114659174, "alt_km": 369.2562890623376, "timestamp": "2025-12-02T07:10:07.889765+00:00", "meta": {"OBJECT_NAME": "DRAGONFLY", "OBJECT_ID": "1998-067XH", "EPOCH": "2025-12-01T20:27:20.656224", "MEAN_MOTION": 15.6777805, "ECCENTRICITY": 0.0006425, "INCLINATION": 51.6261, "RA_OF_ASC_NODE": 191.3365, "ARG_OF_PERICENTER": 210.8786, "MEAN_ANOMALY": 149.1833, "EPHEMERIS_TYPE": 0, "CLASSIFICATION_TYPE": "U", "NORAD_CAT_ID": 65729, "ELEMENT_SET_NO": 999, "REV_AT_EPOCH": 1145, "BSTAR": 0.0010934, "MEAN_MOTION_DOT": 0.00123925, "MEAN_MOTION_DDOT": 0}, "tle": {"line1": "1 65729U 98067XH  25335.85232241  .00123925  00000+0  10934-2 0  9994", "line2": "2 65729  51.6261 191.3365 0006425 210.8786 149.1833 15.67778050 11455"}}, "geometry": {"type": "Point", "coordinates": [-170.22138114659174, 0.9022850308924771]}}, {"type": "Feature", "properties": {"norad_id": 65730, "name": "1998-067XJ", "group": "stations", "lat": 3.8135273408823207, "lon": 0.32373271761772016, "alt_km": 224.63046955579284, "timestamp": "2025-12-02T07:10:07.889776+00:00", "meta": {"OBJECT_NAME": "1998-067XJ", "OBJECT_ID": "1998-067XJ", "EPOCH": "2025-12-01T20:03:18.916704", "MEAN_MOTION": 16.13832998, "ECCENTRICITY": 0.0010756, "INCLINATION": 51.6109, "RA_OF_ASC_NODE": 185.8826, "ARG_OF_PERICENTER": 242.801, "MEAN_ANOMALY": 117.191, "EPHEMERIS_TYPE": 0, "CLASSIFICATION_TYPE": "U", "NORAD_CAT_ID": 65730, "ELEMENT_SET_NO": 999, "REV_AT_EPOCH": 1152, "BSTAR": 0.0027371, "MEAN_MOTION_DOT": 0.02710772, "MEAN_MOTION_DDOT": 0.014802}, "tle": {"line1": "1 65730U 98067XJ  25335.83563561  .02710772  14802-1  27371-2 0  9990", "line2": "2 65730  51.6109 185.8826 0010756 242.8010 117.1910 16.13832998 11528"}}, "geometry": {"type": "Point", "coordinates": [0.32373271761772016, 3.8135273408823207]}}, {"type": "Feature", "properties": {"norad_id": 65731, "name": "1998-067XK", "group": "stations", "lat": -34.91928578497079, "lon": 43.68683405008859, "alt_km": 379.2056273819553, "timestamp": "2025-12-02T07:10:07.889786+00:00", "meta": {"OBJECT_NAME": "1998-067XK", "OBJECT_ID": "1998-067XK", "EPOCH": "2025-12-01T19:27:46.296864", "MEAN_MOTION": 15.6318737, "ECCENTRICITY": 0.0005928, "INCLINATION": 51.6288, "RA_OF_ASC_NODE": 192.5703, "ARG_OF_PERICENTER": 183.4373, "MEAN_ANOMALY": 176.6582, "EPHEMERIS_TYPE": 0, "CLASSIFICATION_TYPE": "U", "NORAD_CAT_ID": 65731, "ELEMENT_SET_NO": 999, "REV_AT_EPOCH": 1143, "BSTAR": 0.00080447, "MEAN_MOTION_DOT": 0.00075235, "MEAN_MOTION_DDOT": 0}, "tle": {"line1": "1 65731U 98067XK  25335.81095251  .00075235  00000+0  80447-3 0  9998", "line2": "2 65731  51.6288 192.5703 0005928 183.4373 176.6582 15.63187370 11439"}}, "geometry": {"type": "Point", "coordinates": [43.68683405008859, -34.91928578497079]}}, {"type": "Feature", "properties": {"norad_id": 65732, "name": "RSP-03", "group": "stations", "lat": 49.32770119565533, "lon": -57.63768737586372, "alt_km": 364.6646010817094, "timestamp": "2025-12-02T07:10:07.889797+00:00", "meta": {"OBJECT_NAME": "RSP-03", "OBJECT_ID": "1998-067XL", "EPOCH": "2025-12-01T19:59:56.239584", "MEAN_MOTION": 15.65356239, "ECCENTRICITY": 0.0006786, "INCLINATION": 51.6276, "RA_OF_ASC_NODE": 191.9628, "ARG_OF_PERICENTER": 186.6272, "MEAN_ANOMALY": 173.4635, "EPHEMERIS_TYPE": 0, "CLASSIFICATION_TYPE": "U", "NORAD_CAT_ID": 65732, "ELEMENT_SET_NO": 999, "REV_AT_EPOCH": 1145, "BSTAR": 0.00097939, "MEAN_MOTION_DOT": 0.00100299, "MEAN_MOTION_DDOT": 0}, "tle": {"line1": "1 65732U 98067XL  25335.83328981  .00100299  00000+0  97939-3 0  9993", "line2": "2 65732  51.6276 191.9628 0006786 186.6272 173.4635 15.65356239 11452"}}, "geometry": {"type": "Point", "coordinates": [-57.63768737586372, 49.32770119565533]}}, {"type": "Feature", "properties": {"norad_id": 65733, "name": "GHS-01", "group": "stations", "lat": -3.947386611955899, "lon": 11.820196121083498, "alt_km": 356.41428117297255, "timestamp": "2025-12-02T07:10:07.889807+00:00", "meta": {"OBJECT_NAME": "GHS-01", "OBJECT_ID": "1998-067XM", "EPOCH": "2025-12-01T19:41:20.291136", "MEAN_MOTION": 15.69686593, "ECCENTRICITY": 0.0007042, "INCLINATION": 51.6281, "RA_OF_ASC_NODE": 191.1284, "ARG_OF_PERICENTER": 209.8558, "MEAN_ANOMALY": 150.2038, "EPHEMERIS_TYPE": 0, "CLASSIFICATION_TYPE": "U", "NORAD_CAT_ID": 65733, "ELEMENT_SET_NO": 999, "REV_AT_EPOCH": 1146, "BSTAR": 0.0012238, "MEAN_MOTION_DOT": 0.00150647, "MEAN_MOTION_DDOT": 0}, "tle": {"line1": "1 65733U 98067XM  25335.82037374  .00150647  00000+0  12238-2 0  9996", "line2": "2 65733  51.6281 191.1284 0007042 209.8558 150.2038 15.69686593 11464"}}, "geometry": {"type": "Point", "coordinates": [11.820196121083498, -3.947386611955899]}}, {"type": "Feature", "properties": {"norad_id": 65941, "name": "YOTSUBA-KULOVER", "group": "stations", "lat": -23.944507977980255, "lon": 32.984006102408074, "alt_km": 396.71885857345114, "timestamp": "2025-12-02T07:10:07.889818+00:00", "meta": {"OBJECT_NAME": "YOTSUBA-KULOVER", "OBJECT_ID": "1998-067XN", "EPOCH": "2025-12-01T14:52:06.534912", "MEAN_MOTION": 15.57565098, "ECCENTRICITY": 0.00022157, "INCLINATION": 51.6287, "RA_OF_ASC_NODE": 195.7889, "ARG_OF_PERICENTER": 159.9481, "MEAN_ANOMALY": 200.1599, "EPHEMERIS_TYPE": 0, "CLASSIFICATION_TYPE": "U", "NORAD_CAT_ID": 65941, "ELEMENT_SET_NO": 999, "REV_AT_EPOCH": 812, "BSTAR": 0.00079143347, "MEAN_MOTION_DOT": 0.00059437, "MEAN_MOTION_DDOT": 0}, "tle": {"line1": "1 65941U 98067XN  25335.61952008  .00059437  00000+0  79143-3 0  9998", "line2": "2 65941  51.6287 195.7889 0002215 159.9481 200.1599 15.57565098  8128"}}, "geometry": {"type": "Point", "coordinates": [32.984006102408074, -23.944507977980255]}}]}